Store Name,Address,Timings,Latitude,Longitude,Phone Number
Westside - A Unit Of Trent Limited - No.39/19,Westside - A Unit Of Trent Limited - No.39/19;Gandhi Nagar First Main Road; Near Spencer Super Market; Adyar; Chennai - 600020; Tamil Nadu,11:00 AM TO 9:00 PM,13.007674190832219,80.25494511482236,7824819949
Westside,Westside; Trent Ltd; Trillium Avenue - Trillium; Sector 29; Gurugram - 122009; Haryana,11:00 AM TO 9:00 PM,28.461484982485644,77.06652311507877,0124-2806942-43
Amar Business Bay,Amar Business Bay; 893/2 Bhamburda - Fergusson College Road; Deccan Gymkhana; Pune - 411004; Maharashtra,11:00 AM TO 9:00 PM,18.51826158741032,73.83915691489273,7045747165
102 - Cosmos Plaza,102 - Cosmos Plaza; Jp Road; D.N.Nagar; Andheri West; Mumbai - 400053; Maharashtra,Closed,19.208017884692005,72.81346656584746,7045371725
Westside - A Unit Of Trent Limited - Army Navy Building,Westside - A Unit Of Trent Limited - Army Navy Building; Kala Ghoda; 148; Mahatma Gandhi Marg; Fort; Mumbai - 400001; Maharashtra,10:30 AM TO 8:30 PM,18.927992987172964,72.82873431489892,02266360495/498/499/500
Pataka House - 57B,Pataka House - 57B; Mirza Ghalib Street; New Market Area; Dharmatala; Taltala; Kolkata - 700016; West Bengal,11:00 AM TO 8:00 PM,22.55388318519252,88.35151971495927,8291297476
Westside - A Unit Of Trent Limited - 22,Westside - A Unit Of Trent Limited - 22; Camac Street; Block D; Kolkata - 700017; West Bengal,11:00 AM TO 8:00 PM,22.54684918519603,88.35123011495912,9038024063
Dr .K. Samantha Reddy Estate - H.No. 3-6-199,Dr .K. Samantha Reddy Estate - H.No. 3-6-199;A;A/1; Beside Minerva Coffee Shop; Himayath Nager; Hyderabad; Telangana - 500029,11:00 AM TO 9:00 PM,17.401334688070207,78.48290691487652,9160102226
35/35A & 130/130A 1St Flr Forum Sujana Mall,35/35A & 130/130A 1St Flr Forum Sujana Mall; Plot No.S-16 - Opp. Malaysian Township; Kukatpally; Hyderabad; Telangana - 500072,11:00 AM TO 9:00 PM,17.484390188020548,78.38692241487773,8885001320
Westside - A Unit Of Trent Limited - No.182,Westside - A Unit Of Trent Limited - No.182; Nsk Salai; Vijaya Forum Mall; Vadapalani; Chennai - 600026; Tamil Nadu,11:00 AM TO 9:00 PM,13.05134029080358,80.20737861482284,8015070081
Westside - A Unit Of Trent Limited - Mayfair Exports,Westside - A Unit Of Trent Limited - Mayfair Exports; 84 G.N. Chetty Road; T Nagar; Chennai - 600017; Tamil Nadu,11:00 AM TO 9:00 PM,13.043630990808609,80.23476231482273,8015070016
Westside - A Unit Of Trent Limited - S-064,Westside - A Unit Of Trent Limited - S-064;Ground Floor; Express Avenue; 49/50L;Whites Road; Royapettah; Chennai - 600014; Tamil Nadu,11:00 AM TO 9:00 PM,13.05855559079888,80.26207531482291,7823944212
The Walk - Ghodbunder Road,The Walk - Ghodbunder Road; Hiranandani Estate; Thane - 400607; Maharashtra,11:00 AM TO 9:00 PM,19.25913718698312,72.98225141490401,7045407674
Westside - A Unit Of Trent Limited - Sungrace Arcade,Westside - A Unit Of Trent Limited - Sungrace Arcade; Opp. Sukan Mall; Near Visat Circle; Motera; Ahmedabad - 380005; Gujarat,10:00 AM TO 8:00 PM,23.623425284652257,72.38688681497884,079-23291485/86/87/88
Westside - A Unit Of Trent Limited Abhijeet-V,Westside - A Unit Of Trent Limited Abhijeet-V; Opp. Mayor'S Bunglow Nr - Netaji Road; Ellisbridge; Ahmedabad - 380006; Gujarat,10:00 AM TO 8:00 PM,23.02938308494959,72.55923271496789,8866010014
Westside - A Unit Of Trent Limited - # 21,Westside - A Unit Of Trent Limited - # 21; Hosur Road; Forum Mall; Kormangala; Bangalore - 560029; Karnataka,10:00 AM TO 9:00 PM,12.9344614908802,77.6093982148216,9513022014
Kamraj road,Kamraj road; Near Commercial street; THE PRESTIGE GROUP KAMRAJ; COMMERCIAL STREET;Bangalore,10:00 AM TO 9:00 PM,12.982630190848665,77.60861041482205,9513022016
Nethaji Nagar,Nethaji Nagar; Edappally; Kochi - 682024; Kerala,Closed,10.026134892833221,76.30605111479443,2267009000
P & M Mall,P & M Mall; Outercircle Road; Bistupur; Jamshedpur; Jharkhand - 831001,11:00 AM TO 8:00 PM,22.785035785073937,86.17860611496342,0657 2320802
Westside (A Unit of Trent ltd),Westside (A Unit of Trent ltd); UGF & FF; Aishwaryam One;P71 D3 Block; MIDC; Pimpri Chinchwad; Pune,11:00 AM TO 9:00 PM,N/A,N/A,8657518742
Westside (A Unit of Trent ltd),Westside (A Unit of Trent ltd); Ground Floor DB Mall;Residency Road; Opp Railway Station Gwalior-474002,11:00 AM TO 8:00 PM,N/A,N/A,8657518783
Westside (A Unit of Trent ltd),Westside (A Unit of Trent ltd); DNo,11:00 AM TO 9:00 PM,N/A,N/A,0883-2471222/2491222
Westside (A Unit of Trent ltd),Westside (A Unit of Trent ltd); Airia Mall; GF shop no 07/09; Near Badshapur; Sector 68; Gurugram-122103,11:00 AM TO 9:30 PM,N/A,N/A,8657540497
Westside,Westside; Kohinoor Square-Dadar; N. C. Kelkar Marg; R. G. Gadkari Chowk; Shivaji Park; Dadar(West); Mumbai.,10:30 AM TO 8:30 PM,N/A,N/A,8657960973
Westside - A Unit Of Trent Limited - A-15,Westside - A Unit Of Trent Limited - A-15; Alankar Cinema Building; Feroz Gandhi Marg; Lajpat Nagar-3; New Delhi; Delhi - 110024,11:00 AM TO 9:00 PM,28.568171282443227,77.23893731508116,9711168120
WD04,WD04; Trent LTD; Gat No 425; Pune Nagar Road; Near Vaibhav Dhaba,8:30 AM TO 5:30 PM,N/A,N/A,9975221221
GF,GF; 1F; 2F Supreme Towers - Block B; Savlanga Road; Jayanagar; Shimoga- 577201; Karnataka,Closed,13.94160959022486,75.57237521483263,8182223237
GF,GF; 1F & 2F; Chanmari Ramhlun Road; Behind Customs Office; Aizawl -796009; Mizoram,Closed,23.740837584594097,92.71762121498115,+916299743025
GF,GF; FF & SF; Ambition Ram Square; New Dak Bungalow Road; Jamal Road Corner; Patna - 800001; Bihar,11:00 AM TO 8:00 PM,25.60872398370641,85.13802241501783,8657540493
Yashraj estate mall ,Yashraj estate mall ; ambajogai road ;old renapur naka ; latur ; maharashtra,10:00 AM TO 9:00 PM,N/A,N/A,8976844246
Near,Near; Khalihamari Road - Thana Chariali; Khaliamari; Dibrugarh - 786001; Assam,10:30 AM TO 8:00 PM,27.4813034,94.9083318,8657518735
Westside - A Unit Of Trent Limited The Arena Transtadia Opp - Dayanand Road,Westside - A Unit Of Trent Limited The Arena Transtadia Opp - Dayanand Road; No-3; Maninagar; Ahmedabad - 380001; Gujarat,10:00 AM TO 8:00 PM,23.013381984957736,72.59425211496757,9099079953
Gf & 1F,Gf & 1F; Bsr Mall; 378; Old Mahabalipuram Road; Jothi Nagar; Thoraipakkam; Chennai; - 600097; Tamil Nadu,11:00 AM TO 9:00 PM,12.949509090870338,80.23831611482179,9790799096
Westside (A Unit of Trent ltd),Westside (A Unit of Trent ltd); Sanket India; Lambhvel Road; Opp. Zydus Hospital; Anand-388001; Gujarat,10:30 AM TO 8:30 PM,N/A,N/A,8657518748/8657518750
Upper Ground Floor,Upper Ground Floor; FF 12; Prestige Forum Shantiniketan - Whitefield Main Road; Bangalore - 560048; Karnataka,Closed,12.98964159084402,77.72587691482214,9663166778
Westside (A Unit of Trent ltd),Westside (A Unit of Trent ltd); 605-608; Avinashi road;Pappanaickenpalayam; Coimbatore-641037,11:00 AM TO 9:00 PM,N/A,N/A,0422-4210853
GF,GF; 1F; 2F; Plot Number A3; Rukminipuri Housing Colony Dr. AS Rao Nagar - Municipality; Main Road; Kapra; Hyderabad; Telangana - 500062,11:00 AM TO 9:00 PM,17.382704788081462,78.51025901487625,040-27140623/24/25
Phoenix Market City,Phoenix Market City; Lal Bahadur Shastri Rd; Kamani; Kurla West; Mumbai - 400070; Maharashtra,11:00 AM TO 9:00 PM,19.0859279,72.8867627,8657489788
Vr Mall,Vr Mall; Ground Floor;Near Vee Care Hospital - W; Anna Nagar; Chennai - 600040; Tamil Nadu,11:00 AM TO 9:00 PM,13.084872990781617,80.20798661482323,8657449219
2F - Anand Complex,2F - Anand Complex; I T I Road; Near Iti Gate; Solan - 173212; Himachal Pradesh,Closed,30.909651481575835,77.09849291513574,0179-2225316/27/42
Nashik Phata Road - Pimple Saudagar,Nashik Phata Road - Pimple Saudagar; Pimpri-Chinchwad - 411027 Maharashtra,11:00 AM TO 9:00 PM,18.596726187364737,73.79345241489385,020-27212056/57/58
Tamanna Arcade - Civil Hospital Road,Tamanna Arcade - Civil Hospital Road; Sadashiv Nagar; Belgaum - 590019; Karnataka,Closed,15.875132489001093,74.51073851485597,0831-4810270/370/470
Ground Floor Opp. Pvn Flyover Pillar No 124 - Attapur,Ground Floor Opp. Pvn Flyover Pillar No 124 - Attapur; Hyderabad; Telangana - 500048,11:00 AM TO 9:00 PM,17.369954188089093,78.4274204148761,040-24012033/34/35
Westside - A Unit Of Trent Limited - R Mall,Westside - A Unit Of Trent Limited - R Mall; Dokali Road; Dokali Pada; Ghodbunder Service Road; Thane - 400607; Maharashtra,11:00 AM TO 9:00 PM,19.228808987000424,72.97962251490353,022 25842651
Gf & 1F,Gf & 1F; Symphony Mall; Bhubaneswar - Cuttack - Bhubaneswar Road; Bhubaneswar - 752101; Odisha,10:30 AM TO 8:00 PM,20.329923586381078,85.88132521492105,8657518719
GF,GF; 1F & 2F; No 35; Anna Salai; Muthu Mariyamman Kovil Street; Pondicherry  605001; Tamil Nadu,11:00 AM TO 9:00 PM,11.940775391537938,79.82524641481155,04132229282/83/84
Westside - A Unit Of Trent Limited - Imperial Square,Westside - A Unit Of Trent Limited - Imperial Square; Hazira Road; Adajan Road; Opp. Aalishan Enclave; Surat - 395009; Gujarat,10:00 AM TO 8:00 PM,21.186312485913255,72.79091891493523,9033000718
Westside - A Unit Of Trent Limited - F-23,Westside - A Unit Of Trent Limited - F-23; Preet Vihar; Vikas Marg; New Delhi; Delhi - 110092,11:00 AM TO 9:00 PM,28.6417262,77.2960402,011-22506050/51/52/53
H.No.,H.No.,11:00 AM TO 8:30 PM,16.314634888729678,80.43880801486173,0863-2231213/4/5
College Road,College Road; Parakkunnam; Palakkad - 678001; Kerala,Closed,10.777559092320779,76.65456241480081,0491-2547780/8060/70
A Unit Of Trent Limited,A Unit Of Trent Limited; Forum Centre City Mall - Nazarbad; Mohalla; Mysuru - 570010; Karnataka,Closed,12.318779391286496,76.66295981481532,8879101588
Westside - A Unit Of Trent Limited Plot No 20 - Near Aakash Institute,Westside - A Unit Of Trent Limited Plot No 20 - Near Aakash Institute; Block A 1; Janakpuri; New Delhi; Delhi - 110058,11:00 AM TO 9:00 PM,28.621741474994153,77.07075988833898,9811073857
Indore II ,Indore II ; Phoenix Citadel Mall ; Next To Mumbai - Agra Road ; Village Kharana,11:00 AM TO 9:00 PM,22.71998559999999,75.82505357910158,8655956602
Prozone Mall,Prozone Mall;Sathy Road; Sivanandhapuram - Po; Saravanampatti; Coimbatore - 641035; Tamil Nadu,11:00 AM TO 9:00 PM,11.055292392132712,76.99192751480318,0422 6628170
29-Karnataka,29-Karnataka; Site No 101;Bb Road; Opp Rmz Galleria - Near Police Station; Yelahanka; Bengalore - 560065; Karnataka,Closed,12.997025490839212,77.5386420148223,080-28563320/21/22/23
The Landmark App.,The Landmark App.;Ctc 222; Civil Lines; Opp. Sip & Bites Hotel Civil Lines - Opp. Sip & Bites Hotel; Vikas Nagar Chowk; Solapur - 413003; Maharashtra,Closed,17.65234688792029,75.90596921488009,0217 2314733
726 Ikon,726 Ikon; Plot-46;47;48 Opp. Sun Bird Bldg - Off; College Road; Yeolekar Mala; Krishi Nagar; Nashik; Maharashtra - 422005,Closed,20.000941386564033,73.75986861491573,9371234510
Westside - A Unit Of Trent Limited - No.68 Perundurai Road,Westside - A Unit Of Trent Limited - No.68 Perundurai Road; Near To Reliance Mall; Erode - 638011; Tamil Nadu,11:00 AM TO 9:00 PM,11.334062491944612,77.70347411480581,0424-2223231/1231/6231
Westside - A Unit Of Trent Limited Simvo Commercial Complex - Opp. Krishi Bhawan,Westside - A Unit Of Trent Limited Simvo Commercial Complex - Opp. Krishi Bhawan; Tadong; Gangtok - 737102; Sikkim,10:00 AM TO 5:00 PM,27.310575482957947,88.59540051505344,03592-231192/113
Sree Ram Building - Mahathma Gandhi Road,Sree Ram Building - Mahathma Gandhi Road; Near Federal Bank; Statue; Thiruvananthapuram - 695001; Kerala,Closed,8.495754193891852,76.94618531478284,4712333315
Westside - A Unit Of Trent Limited - Pvs Mall,Westside - A Unit Of Trent Limited - Pvs Mall; I-Block; Shastri Nagar; Meerut - 250004; Uttar Pradesh,Closed,28.952780182292532,77.72689301508987,0121--2604051/52
Westside - A Unit Of Trent Limited Plot No 1 & 2,Westside - A Unit Of Trent Limited Plot No 1 & 2; Janta Colony Pink Square Mall; Govind Marg; Raja Park; Jaipur - 302004; Rajasthan,Closed,26.90320458313174,75.83465091504472,9783914444
4/478-C Chandanayazhikam Arcade Vadakkevilla - Po,4/478-C Chandanayazhikam Arcade Vadakkevilla - Po; Madannada; Kollam - 691010; Kerala,Closed,8.87698899362642,76.61182281478553,0474-44485/86/87
GF,GF;1F;2F;Mucherla - Vasavi Mansion; Secunderabad; Telangana - 500003,11:00 AM TO 9:00 PM,17.441837688046075,78.48696281487712,040-27822801/02/03
Seawoods Grand Central,Seawoods Grand Central; Plot R 1 - Shop No-34A; Tower; No 2; Railway Station; Above Mahavir Vihar; Sector 40; Navi Mumbai - 400706; Maharashtra,11:00 AM TO 10:00 PM,19.020932187119566,73.01703501490029,7506244940
Gb/C H No. 193,Gb/C H No. 193; Midland - Near Icici Bank; Dimapur - 797112; Nagaland,Closed,25.735850383648607,93.63985931502043,7085086060
Westside - A Unit Of Trent Limited - Princes' Business Skyline,Westside - A Unit Of Trent Limited - Princes' Business Skyline; Block No 32 &33; Pu No. 3; Indore - 452001; Madhya Pradesh,11:00 AM TO 9:00 PM,22.693117885120834,75.88485891496185,9522246755
Anand Fort Mall,Anand Fort Mall; Jnm Marg Jaipur - 302017; Rajasthan,Closed,26.85580838315215,75.80393701504373,9982697333
Orion Avenue,Orion Avenue; 10/34 G001/101; Banaswadi Main Road; Maruthi Seva Nagar; Bangalore - 560033; Karnataka,Closed,13.00122979083644,77.63047261482228,8657489803
Mc No. Z412756,Mc No. Z412756; Near Kapsons; Gt Road; Bhatinda - 151001; Punjab,11:00 AM TO 7:30 PM,30.660839881662337,76.29470001512973,8657489774
Westside - A Unit Of Trent Limited - Cd Diva Near Swami Chinmayanand Marg,Westside - A Unit Of Trent Limited - Cd Diva Near Swami Chinmayanand Marg; Gogal Housing Board Road; Margao - 403601; Goa,10:00 AM TO 8:00 PM,15.281683789371614,73.9800362148485,0832 22751620 / 1621
Shop No-95,Shop No-95; B Block - Plot No-16; Ahinsa Khand; Phase-1; Habitat Centre; Indirapuram; Ghaziabad - 201014; Uttar Pradesh,Closed,28.63964468241505,77.3673829150828,9899811907
Shop 14,Shop 14; Eva Mall - Patidar Crossing; Near Saraswati Complex; Baroda - 390011; Gujarat,10:00 AM TO 8:00 PM,22.273146785337797,73.18688171495415,9099082617
Shop No- 111,Shop No- 111; Gr Floor; Garden Galleria Mall Plot No-A 2 - Behind The Great India Place; Sector 38; Noida -201301; Uttar Pradesh,Closed,28.564926982444543,77.31976651508107,8860317479
Westside - A Unit Of Trent Limited - Unity One Mall,Westside - A Unit Of Trent Limited - Unity One Mall; Rohini-West; New Delhi; Delhi - 110085,11:00 AM TO 9:00 PM,28.71503408238521,77.11389671508448,9654101436
Metropolis Mall,Metropolis Mall; Indira Chowk; Pant Nagar; Metropolis Mall; Indira Chowk; Pant Nagar; Rudrapur - 263153; Uttarakhand,11:00 AM TO 9:00 PM,29.00173158227359,79.39713121509097,05944-249204/308
The Institute Of The Franciscan Sisters Of Mary Hanamkhonda - Main Road,The Institute Of The Franciscan Sisters Of Mary Hanamkhonda - Main Road; Postal Colony; Subedari; Hanamkonda - 506001; Telangana,11:00 AM TO 9:00 PM,17.995170087717177,79.54684791488499,0870 2454666
Westside - A Unit Of Trent Limited - Ground Floor,Westside - A Unit Of Trent Limited - Ground Floor; Walkway Mall; Nh 87; Nanital Road; Halfway I; Haldwani - 263126; Uttarakhand,11:00 AM TO 9:00 PM,28.861646082327976,79.51358561508779,05946-283336/7
Westside - A Unit Of Trent Limited - Hotel Fortune Park,Westside - A Unit Of Trent Limited - Hotel Fortune Park; Galaxy Campus; N.H. No – 08 G.I.D.C; Vapi - 395195; Gujarat,11:00 AM TO 9:00 PM,20.373756786356896,72.91807551492165,0260-2429378/82
Westside - A Unit Of Trent Limited Fidvi Tower,Westside - A Unit Of Trent Limited Fidvi Tower; Opp Saraf Chambers - Sadar Bazar Main Road; Nagpur - 440001; Maharashtra,Closed,21.159566785927623,79.07601141493488,8806499977
Shop No. 57,Shop No. 57; Ground Floor; North Country Mall 21 - Kharar Road; Sahibzada Ajit Singh Nagar; Mohali - 160118; Punjab,11:00 AM TO 9:00 PM,30.737379481635564,76.67632491513156,8699021277
Westside - A Unit Of Trent Limited - Fourm Fiza Mall,Westside - A Unit Of Trent Limited - Fourm Fiza Mall; Shop No Ugf 11/12; Pandeshwar Road; Mangalore - 575001; Karnataka,Closed,12.858095790930479,74.83630531482082,0824-2498174/75
Gold Crest Building,Gold Crest Building; Gf & FF - Opp Manubhai Jewelers; L T Road; Nr. Railway Stn.; Borivali (W); Mumbai - 400092; Maharashtra,11:00 AM TO 9:00 PM,19.22913088700028,72.8501218149034,022 28901059/78
Sjr Zion,Sjr Zion; Shop No 42/5 - Opp Shankar Eye Hospital; Nr. Kundanhally Gate Signal; Srj Mall; Bangalore - 560037; Karnataka,Closed,12.955801990866242,77.71029701482188,8158812531
Westside - A Unit Of Trent Limited Plot No-5,Westside - A Unit Of Trent Limited Plot No-5; Bolock-M - 2; Next To Hp Petrol Pump; South Extension I; New Delhi; Delhi - 110049,11:00 AM TO 9:00 PM,28.56787298244337,77.22175041508113,9211728164
Mullassery Towers,Mullassery Towers; Kuruppam Road; Thrissur - 680001; Kerala,Closed,10.520555592495459,76.21031131479853,0487-2445858/59
Magarpatta,Magarpatta; Hadapsar; Pune - 411028; Maharashtra,11:00 AM TO 9:00 PM,18.518933887409972,73.92858851489268,7875013906
Sevoke Plaza Near P.C. Mittal - Bus Stand,Sevoke Plaza Near P.C. Mittal - Bus Stand; Opp. Bharat Petrol Pump; Siliguri - 734001; West Bengal,11:00 AM TO 8:00 PM,26.742612583201193,88.43357901504135,9775400411
01 F - Dumas Airport Road,01 F - Dumas Airport Road; Magdalla; Surat - 395007; Gujarat,9:30 AM TO 8:30 PM,21.1446551859357,72.75516971493455,9033001075
D.No,D.No,11:00 AM TO 9:00 PM,16.505291288612845,80.65981161486425,0866 6541256
Westside - A Unit Of Trent Limited - 40/323,Westside - A Unit Of Trent Limited - 40/323; Jyoti Mall; Bellary Road; Opp.Zilla Parishad; Kurnool - 518001; Andhra Pradesh,11:00 AM TO 9:00 PM,15.830657989028746,78.03802971485541,08518-224421/22/23
1 - Muthiah Towers,1 - Muthiah Towers; Royal Road; Cantonment; Tiruchirappalli - 620001; Tamil Nadu,11:00 AM TO 9:00 PM,10.79989349230562,78.67849011480097,0431  2466966
Gf,Gf;Amar Business Park;;Opposite - Sadanand Hotel; Baner,11:00 AM TO 9:00 PM,18.56835568738116,73.76562351412846,02267009000
Westside - A Unit Of Trent Limited - Crossroads Mall,Westside - A Unit Of Trent Limited - Crossroads Mall; Unit No U-01 & F – 01; Old Survey Road; Karanpur; Dehradun - 248001; Uttarakhand,11:00 AM TO 9:00 PM,30.335042681777484,78.05630321512197,0135-2743260/61
Westside - A Unit Of Trent Limited - Nikku Park Road,Westside - A Unit Of Trent Limited - Nikku Park Road; Opp. Hub545; Model Town; Jalandhar - 144001; Punjab,11:00 AM TO 9:00 PM,31.3071913814406,75.57780461514542,0181--4011897/99
A Block - 26/1,A Block - 26/1; Doctor Rajkumar Road; Rajajinagar; Bengalore - 560055; Karnataka,Closed,13.010208790830543,77.55293971482244,9844141609
Westside - A Unit Of Trent Limited - R001,Westside - A Unit Of Trent Limited - R001; 48 Abc Ground Floor; R Kay Mall Panchwati; Udaipur - 313001; Rajasthan,Closed,24.596938584178798,73.68856001499763,0294-2427558/59
Mungeli Road - Ganga Nagar Sector - 2,Mungeli Road - Ganga Nagar Sector - 2; Ganga Nagar; Mangla; Bilaspur - 495001; Chhattisgarh,11:00 AM TO 9:00 PM,22.09377318543124,82.12320201495105,07752-271801/03
67,67; Ground Floor - Lalbahadur Shastri Road; Amrut Nagar; Ghatkopar West; Mumbai - 400086; Maharashtra,11:00 AM TO 9:00 PM,19.09987338707418,72.91513031490157,7208010436
Inifiniti Mall 2,Inifiniti Mall 2; Ground Floor; Unit No 001 Survey No.504 - New Link Road; Near D-Mart; Rajan Pada; Malad West; Mumbai - 400064; Maharashtra,12:00 PM TO 9:00 PM,19.18465698702566,72.83191031490291,7208010434
Phoenix Market City - Ug-25,Phoenix Market City - Ug-25; Nagar Road; Viman Nagar; Pune - 411014; Maharashtra,11:00 AM TO 9:00 PM,18.561091087385453,73.91514821489336,9028002087
Db City Mall,Db City Mall; Khasra 1511 & 1509 Arera Hills - Hoshangabad Road; Opposite; Zone-I; Maharana Pratap Nagar; Bhopal - 462016; Madhya Pradesh,11:00 AM TO 9:00 PM,22.994134833129394,77.3097222437181,0755-6644081/82/83
Westside - A Unit Of Trent Limited Caculo Mall Opposite Fire Service H.Q - Saint Inez Road,Westside - A Unit Of Trent Limited Caculo Mall Opposite Fire Service H.Q - Saint Inez Road; Panaji - 403001; Goa,10:00 AM TO 8:00 PM,15.487791689242423,73.81692691485104,0832-2233311/13/17
Westside - A Unit Of Trent Limited - 67 /71,Westside - A Unit Of Trent Limited - 67 /71; Krishnaswamy Road; Brookefields Mall; Coimbatore - 641001; Tamil Nadu,11:00 AM TO 9:00 PM,11.009580592163564,76.95675301480283,9025485675
Imperial Mall,Imperial Mall; Near Civil Chowk;Civil Hospital Road,11:00 AM TO 9:00 PM,26.630258478604365,92.79488361451448,2267009000
Westside - A Unit Of Trent Limited - Plot No. - 28- A,Westside - A Unit Of Trent Limited - Plot No. - 28- A; Industrial Area; Phase -1 Next To Hdfc Bank; Chandigarh - 160002; Punjab,11:00 AM TO 9:00 PM,30.712769181644138,76.80819261513106,0172-2650386/87
269/35,269/35; Ashok Pillar Road;2Nd Block; Near Big Hospital; Jayanagar,Closed,12.942406219019363,77.58326471510628,7019970693
Westside - A Unit Of Trent Limited - 16/113 Z Square Shopping Mall,Westside - A Unit Of Trent Limited - 16/113 Z Square Shopping Mall; Mall Rd; Kanpur - 208001; Uttar Pradesh,Closed,26.472924783319023,80.35086311503564,8604000242
Plot 3,Plot 3; 4; 8/Part; Madeenaguda Main Road; Adjacent To Gsm Mall,11:00 AM TO 9:00 PM,17.463048512632476,78.36120678763855,8657540159
Gf ,Gf ;Corporate Park; Block 109;Behind Ashok Cosmos Mall,11:00 AM TO 9:00 PM,27.20014549999999,77.99931876977539,2267009000
Westside - A Unit Of Trent Limited - City Center Mall,Westside - A Unit Of Trent Limited - City Center Mall; Ks Rao Road; Hampankatta; Mangalore - 575001; Karnataka,Closed,12.871653990921505,74.840331614821,0824-2449015/16/17
Sir Mathurdas Vasanji Road,Sir Mathurdas Vasanji Road; Chakala; Andheri East; Near Sangam Theatre,Closed,19.127188516090524,72.8380907331388,8657995540
Ground & 1St Floor,Ground & 1St Floor;Blue City Mall; ;Circuit House Road,11:00 AM TO 9:00 PM,26.272250493692656,73.00117751450672,2267009000
Westside - A Unit Of Trent Limited - 1St Floor,Westside - A Unit Of Trent Limited - 1St Floor; Samdareeya Mall; Subhdra Kumari Chohan Ward; Civic Centre; Jabalpur - 482001; Madhya Pradesh,11:00 AM TO 9:00 PM,23.162007184882583,79.95625101497038,0761 4069830
Opp Pushkar Icon,Opp Pushkar Icon;Nikol-Naroda Road;,11:00 AM TO 9:00 PM,23.05652574626459,72.51610181157614,2267009000
Westside - A Unit Of Trent Limited - Silver Square Mall,Westside - A Unit Of Trent Limited - Silver Square Mall; Christianbasti; G.S. Road; Guwahati - 781005; Assam,10:30 AM TO 8:00 PM,26.1580383834583,91.77373611502904,0361-2343942/890
Bhadurpur Gomati,Bhadurpur Gomati;Kankkarbhag Main Road;,11:00 AM TO 9:00 PM,25.605201039815984,85.14420292254628,2267009000
Nungambakkam,Nungambakkam;Wallace Garden 2Nd Street;,11:00 AM TO 9:00 PM,13.017349712638,80.16687672920249,2267009000
Near,Near; Labhandi Road; Telibandha; Raipur - 492001; Chhattisgarh,11:00 AM TO 9:00 PM,21.232985587227635,81.62327983585496,0771-2259111/16
Phase 2,Phase 2; Ahmedabad One Mall;Near Vastrapur Lake;Vastrapur,11:00 AM TO 9:00 PM,23.0568108030183,72.51610162947523,2267009000
Korum Mall,Korum Mall; Upper Ground Floor - Near Cadbury Compound; Mangal Pandey Road; Thane W; Thane - 400606; Maharashtra,11:00 AM TO 9:00 PM,19.20338618701501,72.96255671490309,7208010458
Hanumanth Saw Mill,Hanumanth Saw Mill; Near Nashik Lube Hotel;Ganesh Baba Nagar; Nasik Pune Highway,11:00 AM TO 9:00 PM,19.984152027991755,73.80051431439057,2267009000
Plot No.6-3,Plot No.6-3; Kmc Retail Mall - Circle; 1112; Near Kirtilal Jewellers; Somajiguda; Hyderabad; Telangana - 500082,11:00 AM TO 9:00 PM,17.42260748805747,78.45917501487683,9030001976
Galleria Mall Kerala,Galleria Mall Kerala;Near Federal Tower;Puthiyara; Kozhikode,11:00 AM TO 9:00 PM,11.258583653188422,75.79087691429046,2267009000
Ef3 Mall,Ef3 Mall; Plot No -12 - Sector 20A; Faridabad - 121001; Haryana,10:00 AM TO 7:00 PM,28.407365582507165,77.30798081507751,9212432151
Ambition Shresth,Ambition Shresth;Raza Bazar; Bailey Road;Near Pillar No. 55,11:00 AM TO 9:00 PM,25.605019021318224,85.08314271449274,2267009000
A Unit Of Trent Limited,A Unit Of Trent Limited; K C Central Indra Theater - Near Circuit House; Canal Road; Jammu - 180001; Jammu And Kashmir,10:30 AM TO 8:30 PM,32.727457880987,74.84343031518083,0191-2553665/2502750
Sanmathi Square,Sanmathi Square;Adabari ;At Road,11:00 AM TO 9:00 PM,26.158022792384635,91.66964892262332,2267009000
Westside - A Unit Of Trent Limited - Level 01,Westside - A Unit Of Trent Limited - Level 01; Haiko Mall; Central Avenue; Hiranandani Gardens; Powai; Mumabi - 400076; Maharashtra,11:00 AM TO 9:00 PM,19.118153187063765,72.90898961490186,7208010457
Gf,Gf; Ff & Sf ;Plot No.74 Survey No. 3996;3998/3;Vishwavidyalaya Marg; Devas Road.,11:00 AM TO 9:00 PM,23.173376684876974,75.78986041422857,2267009000
Westside - A Unit Of Trent Limited - F41 & F42,Westside - A Unit Of Trent Limited - F41 & F42; Inorbit Mall; Nr.Vashi Station; Vashi; Navi Mumbai -  400705; Maharashtra,11:00 AM TO 9:00 PM,19.0662432,73.0002006,7208010456
9-15-10 ,9-15-10 ; Cbm Compound ;Vip Road,11:00 AM TO 9:00 PM,17.72906689752828,83.31192211435781,2267009000
Westside - A Unit Of Trent Limited - Mani Square Mall,Westside - A Unit Of Trent Limited - Mani Square Mall; 164/1 Maniktala Main Road. Ps- Phoolbagan; Kolkata - 700054; West Bengal,11:00 AM TO 8:00 PM,22.577773185180018,88.39827861495965,9038024062
Commercial Building,Commercial Building; Main Road; Pandri;,11:00 AM TO 9:00 PM,21.24837937312527,81.65815607123436,2267009000
Westside - A Unit Of Trent Limited - Wave Mall,Westside - A Unit Of Trent Limited - Wave Mall; Ferozepur Road; Ludhiana - 141001; Punjab,11:00 AM TO 9:00 PM,30.88551118158411,75.7862026151352,7696076077
The Gallaeria,The Gallaeria; Near Big Bazaar;Sri Ram City; Kola Kusma Road;Sugiadih; Lohar Kulli; Saraidhella,11:00 AM TO 9:00 PM,23.820930391996388,86.46759241445712,2267009000
Shop No. 148/239,Shop No. 148/239; Iscon Mega Mall - Next To Iskcon Temple; Near Rajpath Rangoli Road; Ahmedabad - 380054; Gujarat,10:00 AM TO 8:00 PM,23.031044584948837,72.50555321496789,8866010015
Free Charge Payment Tech. Pvt Ltd.,Free Charge Payment Tech. Pvt Ltd.;100 Feet Road; Hal 2Nd Stage; Doopanahalli Domlur,11:00 AM TO 9:00 PM,12.96792695320085,77.57814722362097,2267009000
No 560,No 560; New Kantharaj Urs Road - Next To Karnataka Bank; Saraswathipuram; Mysuru - 570023; Karnataka,Closed,12.296097691301567,76.62145051481501,0821-2340150/51
Westside - A Unit Of Trent Limited - Iscon Mall,Westside - A Unit Of Trent Limited - Iscon Mall; Opp. Rajhans Theatre; Surat-Dumas Road; Surat - 395007; Gujarat,10:00 AM TO 8:00 PM,21.161988885926323,72.7720814149349,7045747066
N/19,N/19; Jessore Road South;North 24 Pgs; ;Near Croma Showroom,11:00 AM TO 9:00 PM,22.711358933587796,88.47493051443655,2267009000
Grand Galleria Global City,Grand Galleria Global City;Near Yazzo Park; Narangi Bypass Road;Virar,11:00 AM TO 9:00 PM,19.293514963771827,72.74827957241746,2267009000
Westside - A Unit Of Trent Limited Plot No 21 Plot No 21 - City Pulse Mall,Westside - A Unit Of Trent Limited Plot No 21 Plot No 21 - City Pulse Mall; Narayan Singh Road; Jaipur - 302004; Rajasthan,Closed,26.899750683133185,75.81145671504464,9772104433
Arbit 11,Arbit 11; Opp. Hotel Park Regency;Park Road; Civil Lines,11:00 AM TO 9:00 PM,26.75289408319672,83.37682831432093,2267009000
Gf,Gf; Golden Plaza;Near Aura Mall; Gulmohar,11:00 AM TO 9:00 PM,23.189908700000025,77.39877417910157,2267009000
Westside - A Unit Of Trent Limited - Pacific Mall,Westside - A Unit Of Trent Limited - Pacific Mall; Plot No 1; Site No Iv Sahibabad Ind. Area; Ghaziabad - 201010; Uttar Pradesh,Closed,28.64628398241236,77.3172892150829,0120-2778511-17
Prabhatam Grand Mall,Prabhatam Grand Mall;Dhaiya - Barwadaa Road;Chanchani Colony,11:00 AM TO 9:00 PM,23.829359891673448,86.43117301445734,2267009000
The Gariahat Mall - 13,The Gariahat Mall - 13; Jamir Lane; Kolkata - 700019; West Bengal,11:00 AM TO 8:00 PM,22.521659885208948,88.36890721495865,8981080464
Dsr Woodwinds 83,Dsr Woodwinds 83;11 & 84 Sarjapur Main Road; Bellandur,11:00 AM TO 9:00 PM,12.910522890895987,77.68534651403476,2267009000
Westside - A Unit Of Trent Limited - Monalisa Centrum,Westside - A Unit Of Trent Limited - Monalisa Centrum; Off Race Course Road; Next To Inox Multiplex; Hari Nagar; Vadodara - 390007; Gujarat,10:00 AM TO 8:00 PM,22.312486585317213,73.15592111495498,8866004419
Sarbahal Road,Sarbahal Road;Near Vishal Mega Mart; Marwari Para,11:00 AM TO 9:00 PM,21.84835146467017,84.01113651442127,2267009000
Westside - A Unit Of Trent Limited - Cts/15,Westside - A Unit Of Trent Limited - Cts/15; Opp To Hockey Ground; Garuda Mall;Magrath Road; Ashok Nagar; Bangalore - 560025; Karnataka,Closed,12.970306890856723,77.60714961482194,9513022018
Infiniti Mall Near Raheja Classic Complex Oshiwara - Phase D,Infiniti Mall Near Raheja Classic Complex Oshiwara - Phase D; Shastri Nagar; Andheri West; Mumbai - 400058; Maharashtra,12:00 PM TO 9:00 PM,19.14112118705066,72.8289189149022,7208010455
Prestige North Point,Prestige North Point; 4M; 403;Kammanahalli Main Road;Hrbr Layout 3Rd Floor; Kalyan Nagar,11:00 AM TO 9:00 PM,13.023276140821945,77.6352253140363,2267009000
17,17; Race Course Road - Opp. Basketball Club; Near Narayan Kothi; New Palasia; Indore - 452003; Madhya Pradesh,11:00 AM TO 9:00 PM,22.72649058510374,75.87761131496235,9229258200
Surendra Bhavan,Surendra Bhavan;A T Road,11:00 AM TO 9:00 PM,26.75460287332079,94.18002811451717,2267009000
Shilp Zaveri,Shilp Zaveri; Shyamal Char Rasta;Opp. Retreat Tower; Satelite,11:00 AM TO 9:00 PM,23.014943784956884,72.52864641422481,2267009000
L-1,L-1; Ground Floor; Wave Mall; Sector 18; Noida - 201301; Uttar Pradesh,Closed,28.56785998244343,77.32059871508109,9811075682
Shalimar Mall,Shalimar Mall;Alambaug Bus Stand,11:00 AM TO 9:00 PM,26.819245570565084,80.90525931451862,2267009000
Pacific Mall,Pacific Mall; Netaji Subhas Palace;Pink Line Metro Station;Pitampura,11:00 AM TO 9:00 PM,28.67043720386025,77.09365829030669,2267009000
Vattakunnel House,Vattakunnel House;K K Road,11:00 AM TO 9:00 PM,9.589368493133422,76.52907251399516,2267009000
Galaxy Blue Sapphire Plaza ,Galaxy Blue Sapphire Plaza ; C-03 ;Sector -04;Near Gaur City Mall;Greater Noida,11:00 AM TO 9:00 PM,28.607331882427754,77.43483791437353,2267009000
Lulu Mall,Lulu Mall;;Sushant Golf City;Shaheed Path Road,11:00 AM TO 9:00 PM,26.784230700000005,80.95637187910158,2267009000
Metro Junction Mall,Metro Junction Mall;Netivali Baugh; Shil Road,11:00 AM TO 9:00 PM,19.091986882987676,72.87133825925352,2267009000
Westside - A Unit Of Trent Limited - 15A,Westside - A Unit Of Trent Limited - 15A; 34/35; Ajmal Khan Road; Karol Bagh; New Delhi; Delhi - 110005,11:00 AM TO 9:00 PM,28.64593698241246,77.18676131508293,9899569297
Lulu Global Mall,Lulu Global Mall;Gopalapura;Binnipete,11:00 AM TO 9:00 PM,12.980914318187226,77.56088851430445,080 61035670
231,231; Sgs Mall; Moledina Road - Camp; Pune - 411001; Maharashtra,11:00 AM TO 9:00 PM,18.51946388740961,73.87551621489273,7276098345
Umiya Velociti Godrej,Umiya Velociti Godrej;Woodsman Estate; Hebbal Kempapura;,11:00 AM TO 9:00 PM,13.051893716643958,77.59169721430511,2267009000
Westside - A Unit Of Trent Limited,Westside - A Unit Of Trent Limited; 39 N. S. Patkar Marg; Opp. Dalvi - Hospital; Mumbai - 400007; Maharashtra,Closed,18.95870448715535,72.80824231489932,7208010425
Divinity Mall,Divinity Mall; Pantharapalya;Kengeri Hobli; Blr South Taluka;Bangalore-Mysore Road,11:00 AM TO 9:00 PM,12.9402316,77.5235039,2267009000
Municipal No. 8 To 32 And 395,Municipal No. 8 To 32 And 395;Survey No. 33 To 39 & 85/1; Situated At Ward 6;Block 6; Plot No. 1; Kavadiguda,11:00 AM TO 9:00 PM,17.427323756121144,78.37210338133859,2267009000
Shillong Patty,Shillong Patty; Next To Women’s College; Shyama Prasad Road; Silchar - 788001; Assam,10:00 AM TO 8:00 PM,24.823200784071613,92.79941891500208,8657489855
Shop No G-35,Shop No G-35; Phonix Palassio Mall ;Amar Shaheed Path;Gomti Nagar Extension,11:00 AM TO 9:00 PM,26.80883180200111,81.01189587169169,2267009000
Anitron Complex,Anitron Complex; Next To Crown Palace Hotel; Makronia Road; Sagar - 470004; Madhya Pradesh,11:00 AM TO 9:00 PM,23.84963408454053,78.78043161498321,8657489852
Mather Esperanza,Mather Esperanza;Sea Port; Airport Road;Chittethukara; Csez Area,11:00 AM TO 9:00 PM,10.001948175746232,76.34595496428206,2267009000
GF,GF; 1F; Cs No. 202/3-S; 202; Kawla Naka;  Opposite To Mary Welness Hospital; Kolhapur - 416003; Maharashtra,Closed,16.71384198848558,74.230450714867,0231-2539114
Utiopia Mall,Utiopia Mall;Garden Grove; Chikuwadi;Borivali (W),11:00 AM TO 9:00 PM,19.221833002368452,72.834501914379,2267009000
Professor Colony,Professor Colony; Krishna Colony; Prem Colony; Yamuna Nagar - 135001; Haryana,10:00 AM TO 7:00 PM,30.138249781848245,77.2913695151173,01732231499
Sy No. 106/1,Sy No. 106/1; Electronics City Phase 1;Dottathoguru;,11:00 AM TO 9:00 PM,12.841573590941284,77.64263401403383,2267009000
Usharam Integra,Usharam Integra;8-1-330-346; Toli Chowki;Beside Reliance Smart,11:00 AM TO 9:00 PM,17.404244456431552,78.40642765794938,2267009000
Pranami Height,Pranami Height; Lalpur Chowk; Circular Road; Lalpur; Beside Kc Roy Memorial Hospital; Ranchi - 834001; Jharkhand,10:30 AM TO 8:00 PM,23.370420284778078,85.33673811497421,+919831154745
Yella Reddy Guda Road,Yella Reddy Guda Road;Near Amerpet Metro Station;Ameerpet,11:00 AM TO 9:00 PM,17.434472188050375,78.44282871410708,2267009000
Rajarhat,Rajarhat; Plot Ii D; 31/1; Action Area Iid; Kolkata - 700157; West Bengal,11:00 AM TO 8:00 PM,22.621700285157434,88.45174631496047,8657540087
Central Plaza,Central Plaza; 1086;Ballupur Chowk; Chakrata Road,11:00 AM TO 9:00 PM,30.38028660958502,77.8173266146019,2267009000
Upper Ground /First Floor,Upper Ground /First Floor; Sarath City Capital Mall; Gachibowli - Miyapur Rd; Whitefields; Kondapur; Hyderabad; Telangana - 500084,11:00 AM TO 9:00 PM,17.457267688036726,78.36086871487733,8657518711
Sr No 234/1 To 4/6/7,Sr No 234/1 To 4/6/7;Plot No. 1 And 2;Hinjewadi,11:00 AM TO 9:00 PM,18.557593776719376,73.75797479781586,2267009000
Lot No. 2,Lot No. 2; Rev Plot No. 726; Khata No. 310; Unit No. 10 Mouza; Satya Nagar; Bhubaneswar - 751003; Odisha,10:00 AM TO 8:00 PM,20.28135488640787,85.83742681492024,0674-2570237/8/9/40
Hilite Mall/Kozhikode,Hilite Mall/Kozhikode;Hilite City; Thondayad Bypass;G A College Po;,11:00 AM TO 9:00 PM,11.248526353378933,75.83142241429042,2267009000
The Retail Park,The Retail Park; Rajyash City;On Brts Road; Central Bopal,11:00 AM TO 9:00 PM,23.046745395441427,72.46438342559948,2267009000
Sashwath Const. Pvt.Ltd.,Sashwath Const. Pvt.Ltd.;Next To Bata Showroom;Kalavasal Junction; Theni Road,11:00 AM TO 9:00 PM,9.93077997694828,78.09240391428158,2267009000
Westside Survey No. 228,Westside Survey No. 228; Old 44;44/1;44/2 (New); Safilguda Village; Malkajgiri Mandal; Medchal Malkjgiri; Secunderabad,12:00 AM TO 11:59 PM,17.459843038695453,78.53604029159222,2267009000
Udeshna Mall . G.S Road Dispur.Near Down Town Hospital - Assam- Guwahati,Udeshna Mall . G.S Road Dispur.Near Down Town Hospital - Assam- Guwahati,11:00 AM TO 9:00 PM,N/A,N/A,8655836916
Westside(A Unit of Trent Ltd) # Arena 100 Ft. main Road,Westside(A Unit of Trent Ltd) # Arena 100 Ft. main Road; Midhilapuri colony Madhurwada,11:00 AM TO 9:00 PM,N/A,N/A,080974 51402
Westside A Unit of Trent Ltd Soul City Mall,Westside A Unit of Trent Ltd Soul City Mall; Plant No. 4 Hotel Radission Blue; Sector 13; Dwarka,11:00 AM TO 9:00 PM,N/A,N/A,089768 44311
Shop No,Shop No,11:00 AM TO 9:00 PM,30.70493918164684,76.8000569151308,8699020292
Rajhans Flamingo,Rajhans Flamingo; Beside Neeru Farm; Near Ankur Vidya Bhavan; Ved Road; Katargam,10:00 AM TO 8:00 PM,N/A,N/A,0261 350 3154
D’cove,D’cove; Thiruvanmiyur; Rajaji Nagar; ECR Main road; Opposite TITAN Showroom; Thiruvanmiyur Chennai 600 041.,11:00 AM TO 9:00 PM,N/A,N/A,8097451667
Kompally ,Kompally ; Hyderabad; Near Bommarillu Restaurant; Hero Honda Service Centre; Suchitra Junction; Kompally,11:00 AM TO 9:00 PM,N/A,N/A,040 2723 5120
11-13-194/1,11-13-194/1; National Highway 65; polkampally; Margadarshi Colony; Kothapet,11:00 AM TO 9:00 PM,N/A,N/A,040 2955 6532
Nehru Nagar,Nehru Nagar; Rajkot; Gujarat 360007,10:30 AM TO 8:30 PM,22.29860787200951,70.78070774749558,07045120439
Club Road,Club Road; Mithanpura; Near MDDM College;Muzaffarpur; Bihar,11:00 AM TO 9:00 PM,N/A,N/A,8657926735
Bhartiya city centre,Bhartiya city centre; next to Hotel leela palace; near nikkoo homes; Thanisandra main road; Chokannahalli; Hegde nagar; Bengaluru 560064,10:00 AM TO 9:00 PM,13.0832941,77.6434728,8657964628
Mall,Mall; Gomati Nagar; Lucknow-226010; Uttar Pradesh,Closed,26.863079983148996,80.9960113150439,8657401865
"""Newa Techno City","""Newa Techno City; Unit no 8;9&10
Ground & first Floor; Plot no IT 6;
Airoli Knowledge Park;TTC Industrial Area;Airoli""",11:00 AM TO 9:00 PM,19.1115599,72.9898217,9672992150
"""Ananta Stallion","""Ananta Stallion; 
Next to Sears Tower;
Gotri Sevasi Main Road;
Vadodara - 391101""",11:00 AM TO 9:00 PM,22.318295202931015,73.12228786110252,8655836917
City Gold Centre 1,City Gold Centre 1; Opp. R.A.F Camp; Nr. Ramol toll plaza; SP Ring road; Vastral,10:00 AM TO 9:00 PM,22.9872502,72.6639633,8655912098
GT Galleria 2 Krishna Marg,GT Galleria 2 Krishna Marg; C scheme Jaipur,11:00 AM TO 9:00 PM,26.9101077,75.8030482,8655912091/8655912092
R square,R square; chala,11:00 AM TO 9:00 PM,20.3831588,72.9031834,9763693341
Chennai City Centre Mall,Chennai City Centre Mall; No,11:00 AM TO 9:00 PM,13.04312,80.2715813,8655912066
Solaris Business hub,Solaris Business hub; Opp. The national higher secondary school; Sola road; Naranpura,11:00 AM TO 9:00 PM,23.0583112,72.5388742,8983039667
